#aV2023  2 14  0  0  0.00000000     288 DD+AD WGS84 FIT  NGA
## 2249 172800.00000000   300.00000000 59989 0.0000000000000
+   32     1  2  3  4  5  6  7  8  9 10 11 12 13 14 15 16 17
+         18 19 20 21 22 23 24 25 26 27 28 29 30 31 32  0  0
+          0  0  0  0  0  0  0  0  0  0  0  0  0  0  0  0  0
+          0  0  0  0  0  0  0  0  0  0  0  0  0  0  0  0  0
+          0  0  0  0  0  0  0  0  0  0  0  0  0  0  0  0  0
++         2  2  2  2  2  2  2  2  2  2  2  2  2  2  2  2  2
++         2  2  2  2  2  2  2  2  2  2  2  2  2  2  2  0  0
++         0  0  0  0  0  0  0  0  0  0  0  0  0  0  0  0  0
++         0  0  0  0  0  0  0  0  0  0  0  0  0  0  0  0  0
++         0  0  0  0  0  0  0  0  0  0  0  0  0  0  0  0  0
%c cc cc ccc ccc cccc cccc cccc cccc ccccc ccccc ccccc ccccc
%c cc cc ccc ccc cccc cccc cccc cccc ccccc ccccc ccccc ccccc
%f  0.0000000  0.000000000  0.00000000000  0.000000000000000
%f  0.0000000  0.000000000  0.00000000000  0.000000000000000
%i    0    0    0    0      0      0      0      0         0
%i    0    0    0    0      0      0      0      0         0
/*      NGA, ST. LOUIS,MO.                                  
/*   EPHEMERIS COMPUTED FROM 2 DAYS OF DATA                 
/*   EPOCHA v8 SMOOTHER                                     
/*   G2139 IERS2010 SATIGS SATAPC                           
*  2023  2 14 19 30  0.00000000
P  1  14037.334244 -22316.857352    -80.125710    212.542767                    
V  1   1713.903811   1418.320282  32614.530945     -0.042373                    
P  2 -10053.080253  24602.352605   3033.154220   -620.836014                    
V  2  -3483.210204   1670.511575 -31441.745339      0.025496                    
P  3  13291.299843 -12673.909634 -19267.048552   -363.096154                    
V  3  24164.548464   1740.725926  15732.674006      0.045923                    
P  4   4323.777657 -19112.642835 -17870.601926    -27.486780                    
V  4  11671.091030  19588.967334 -18227.280793      0.081868                    
P  5 -24940.794850   5572.382225   7286.828818   -115.907723                    
V  5  -9494.444651  -2294.160189 -29931.559537     -0.014609                    
P  6 -11675.981858  -8784.118768 -22107.415887    572.383724                    
V  6  14962.365820 -23860.484107   1663.242034      0.043964                    
P  7   3439.945866 -23024.526157  12748.418397    241.000493                    
V  7  10596.351013 -11936.636616 -25766.100010     -0.070078                    
P  8  12731.941465  -8316.164338  21707.891487   -108.499619                    
V  8  14127.107227  23847.845146   1232.040588     -0.017606                    
P  9  -5768.952078 -23995.553285  -9830.086302   -218.209391                    
V  9   8489.299683   9423.121764 -28244.066172      0.070448                    
P 10  17897.984636  11414.862498  16331.288158    -24.702537                    
V 10 -20274.504902    866.089606  21544.856888     -0.015837                    
P 11 -18567.133747   4572.974647 -18409.151669   -104.254102                    
V 11  11975.080709 -20155.826039 -17106.122744     -0.101925                    
P 12 -15652.909894  11329.100684 -18458.436896   -340.347800                    
V 12 -22654.912927  -3573.725099  17379.895539     -0.045913                    
P 13 -15665.427200   -130.039689  21300.046381    476.105553                    
V 13  -9271.529757 -25788.073753  -6730.949696      0.061264                    
P 14 -15068.997959 -13341.608544  17400.684729    -27.109462                    
V 14  22137.073952   -542.470139  18633.138922      0.089731                    
P 15 -11747.160685  10338.485478  21001.483349     13.461323                    
V 15 -16825.781745 -22196.079044   1753.237830      0.033216                    
P 16  26232.104075   -646.844751   5198.674440   -520.065980                    
V 16   6596.107450   2999.747581 -30659.053734      0.016925                    
P 17 -12843.576364 -22958.281687  -2810.492333    700.035056                    
V 17    472.779788  -4755.197136  31889.107670      0.024518                    
P 18  -1357.580776  21584.886700  15323.509350   -140.685636                    
V 18 -11988.574326  15465.538484 -22988.994088     -0.158374                    
P 19 -16536.128095 -16378.134630 -13273.386706    277.716324                    
V 19  -4745.286058 -15732.414120  25505.175205      0.050861                    
P 20 -26115.635513    751.639135  -4078.960172    450.713782                    
V 20   4731.386157  -4095.717582 -31004.236928     -0.023571                    
P 21  16675.094544 -17813.893823   9988.868306    154.001242                    
V 21  -2728.399522  12182.017179  28724.041180      0.002203                    
P 22  17220.211767  13385.611227 -14837.093227    427.053357                    
V 22   6052.330756  18692.261408  23044.581615      0.077094                    
P 23   5911.098766  14582.128946  21422.912202      6.165917                    
V 23 -27130.318166    603.371471   6935.907929      0.016221                    
P 24 -14528.463622  21371.581042   4723.527445    -73.749286                    
V 24   -659.826430  -7619.477397  30632.278733     -0.160187                    
P 25  -4911.033467  15192.032841 -21503.724972    420.108903                    
V 25 -26630.704419   -988.504523   5737.383460      0.032084                    
P 26  24923.391160   5132.458655  -8309.191618    241.493075                    
V 26 -10210.744914   3481.375941 -28526.462352      0.003254                    
P 27  17461.413080   3947.582772  19521.548089    102.382259                    
V 27  11255.203847  22505.087771 -14037.911415     -0.090204                    
P 28  11211.704165  10770.881863 -21566.978793     12.415415                    
V 28 -13727.611105  23607.855390   4655.504943      0.155090                    
P 29   1399.389104  23424.814561 -12411.192935   -586.112795                    
V 29  -8199.326557 -13507.518792 -26593.500346     -0.020433                    
P 30  -7139.950997 -16181.763365  19835.684911   -530.293548                    
V 30  14567.124709 -20552.306051 -11838.346055      0.012594                    
P 31  13790.965181   7050.102480 -21759.621002   -209.235236                    
V 31 -14736.712186  22906.976834  -1482.881487     -0.010631                    
P 32  15904.973420  20645.868018  -5488.664375   -396.159838                    
V 32   1184.594835   7516.234121  30575.160199     -0.116085                    
EOF
